start=new Date('2022-05-15T00:00:00.000Z').valueOf();
sats=[{"MEAN_ELEMENT_THEORY":"SGP4","TLE_LINE2":"2 50833  53.2161 310.4869 0001874  38.2287 351.2295 15.08842277  1305","TIME_SYSTEM":"UTC","TLE_LINE1":"1 50833U 22001AG  22134.91667824  .00008585  00000-0  55678-3 0  9999","EPOCH":"2022-05-14T22:00:00.999936","MEAN_MOTION":"15.08842277","LAUNCH_DATE":"2022-01-06","REV_AT_EPOCH":"130","DECAY_DATE":null,"PERIOD":"95.437","OBJECT_TYPE":"PAYLOAD","MEAN_MOTION_DOT":"0.00008585","FILE":"3445938","INCLINATION":"53.2161","REF_FRAME":"TEME","NORAD_CAT_ID":"50833","EPHEMERIS_TYPE":"0","MEAN_ANOMALY":"351.2295","GP_ID":"203565431","OBJECT_ID":"2022-001AG","RA_OF_ASC_NODE":"310.4869","ECCENTRICITY":"0.00018740","SEMIMAJOR_AXIS":"6917.873","OBJECT_NAME":"STARLINK-3316","ARG_OF_PERICENTER":"38.2287","PERIAPSIS":"538.442","RCS_SIZE":"LARGE","CENTER_NAME":"EARTH","APOAPSIS":"541.035","ELEMENT_SET_NO":"999","COUNTRY_CODE":"US","MEAN_MOTION_DDOT":"0.0000000000000","CLASSIFICATION_TYPE":"U","SITE":"AFETR","BSTAR":"0.00055678000000"},{"MEAN_MOTION":"15.08840506","EPOCH":"2022-05-14T22:00:00.999936","REV_AT_EPOCH":"130","LAUNCH_DATE":"2022-01-06","TIME_SYSTEM":"UTC","TLE_LINE2":"2 50834  53.2171 320.5101 0001973  37.6174 136.8256 15.08840506  1303","MEAN_ELEMENT_THEORY":"SGP4","TLE_LINE1":"1 50834U 22001AH  22134.91667824  .00003013  00000-0  20734-3 0  9996","REF_FRAME":"TEME","EPHEMERIS_TYPE":"0","NORAD_CAT_ID":"50834","MEAN_MOTION_DOT":"0.00003013","OBJECT_TYPE":"PAYLOAD","PERIOD":"95.438","DECAY_DATE":null,"INCLINATION":"53.2171","FILE":"3445938","RA_OF_ASC_NODE":"320.5101","OBJECT_NAME":"STARLINK-3331","SEMIMAJOR_AXIS":"6917.879","ECCENTRICITY":"0.00019730","GP_ID":"203564209","MEAN_ANOMALY":"136.8256","OBJECT_ID":"2022-001AH","MEAN_MOTION_DDOT":"0.0000000000000","COUNTRY_CODE":"US","ELEMENT_SET_NO":"999","APOAPSIS":"541.109","CENTER_NAME":"EARTH","BSTAR":"0.00020734000000","SITE":"AFETR","CLASSIFICATION_TYPE":"U","ARG_OF_PERICENTER":"37.6174","RCS_SIZE":"LARGE","PERIAPSIS":"538.379"},{"DECAY_DATE":null,"MEAN_MOTION_DOT":"0.00035674","OBJECT_TYPE":"PAYLOAD","PERIOD":"95.439","FILE":"3445938","INCLINATION":"53.2154","REF_FRAME":"TEME","NORAD_CAT_ID":"50835","EPHEMERIS_TYPE":"0","TLE_LINE2":"2 50835  53.2154 320.4968 0002084  33.0233 181.4606 15.08820338  1301","MEAN_ELEMENT_THEORY":"SGP4","TIME_SYSTEM":"UTC","TLE_LINE1":"1 50835U 22001AJ  22134.91667824  .00035674  00000-0  22494-2 0  9999","EPOCH":"2022-05-14T22:00:00.999936","MEAN_MOTION":"15.08820338","REV_AT_EPOCH":"130","LAUNCH_DATE":"2022-01-06","ARG_OF_PERICENTER":"33.0233","RCS_SIZE":"LARGE","PERIAPSIS":"538.364","APOAPSIS":"541.247","CENTER_NAME":"EARTH","MEAN_MOTION_DDOT":"0.0000000000000","COUNTRY_CODE":"US","ELEMENT_SET_NO":"999","SITE":"AFETR","CLASSIFICATION_TYPE":"U","BSTAR":"0.00224940000000","MEAN_ANOMALY":"181.4606","GP_ID":"203564455","OBJECT_ID":"2022-001AJ","RA_OF_ASC_NODE":"320.4968","SEMIMAJOR_AXIS":"6917.940","ECCENTRICITY":"0.00020840","OBJECT_NAME":"STARLINK-3310"},{"PERIAPSIS":"538.091","RCS_SIZE":"LARGE","ARG_OF_PERICENTER":"33.0710","CLASSIFICATION_TYPE":"U","SITE":"AFETR","BSTAR":"0.00309360000000","CENTER_NAME":"EARTH","APOAPSIS":"541.613","ELEMENT_SET_NO":"999","COUNTRY_CODE":"US","MEAN_MOTION_DDOT":"0.0000000000000","OBJECT_ID":"2022-001AK","MEAN_ANOMALY":"121.3605","GP_ID":"203565212","ECCENTRICITY":"0.00025460","SEMIMAJOR_AXIS":"6917.987","OBJECT_NAME":"STARLINK-3330","RA_OF_ASC_NODE":"320.4879","FILE":"3445938","INCLINATION":"53.2170","DECAY_DATE":null,"OBJECT_TYPE":"PAYLOAD","PERIOD":"95.440","MEAN_MOTION_DOT":"0.00049245","NORAD_CAT_ID":"50836","EPHEMERIS_TYPE":"0","REF_FRAME":"TEME","TLE_LINE1":"1 50836U 22001AK  22134.91667824  .00049245  00000-0  30936-2 0  9999","TLE_LINE2":"2 50836  53.2170 320.4879 0002546  33.0710 121.3605 15.08805084  1307","MEAN_ELEMENT_THEORY":"SGP4","TIME_SYSTEM":"UTC","LAUNCH_DATE":"2022-01-06","REV_AT_EPOCH":"130","EPOCH":"2022-05-14T22:00:00.999936","MEAN_MOTION":"15.08805084"},{"GP_ID":"203565931","MEAN_ANOMALY":"325.9748","OBJECT_ID":"2022-001AL","RA_OF_ASC_NODE":"310.4941","OBJECT_NAME":"STARLINK-3318","ECCENTRICITY":"0.00018610","SEMIMAJOR_AXIS":"6917.865","ARG_OF_PERICENTER":"43.4719","PERIAPSIS":"538.443","RCS_SIZE":"LARGE","ELEMENT_SET_NO":"999","COUNTRY_CODE":"US","MEAN_MOTION_DDOT":"0.0000000000000","CENTER_NAME":"EARTH","APOAPSIS":"541.017","BSTAR":"0.00073686000000","CLASSIFICATION_TYPE":"U","SITE":"AFETR","TIME_SYSTEM":"UTC","TLE_LINE2":"2 50837  53.2179 310.4941 0001861  43.4719 325.9748 15.08845060  1307","MEAN_ELEMENT_THEORY":"SGP4","TLE_LINE1":"1 50837U 22001AL  22134.91667824  .00011460  00000-0  73686-3 0  9998","MEAN_MOTION":"15.08845060","EPOCH":"2022-05-14T22:00:00.999936","LAUNCH_DATE":"2022-01-06","REV_AT_EPOCH":"130","OBJECT_TYPE":"PAYLOAD","MEAN_MOTION_DOT":"0.00011460","PERIOD":"95.437","DECAY_DATE":null,"INCLINATION":"53.2179","FILE":"3445938","REF_FRAME":"TEME","NORAD_CAT_ID":"50837","EPHEMERIS_TYPE":"0"},{"MEAN_MOTION":"15.08818203","EPOCH":"2022-05-14T22:00:00.999936","REV_AT_EPOCH":"130","LAUNCH_DATE":"2022-01-06","TIME_SYSTEM":"UTC","MEAN_ELEMENT_THEORY":"SGP4","TLE_LINE2":"2 50838  53.2169 320.4980 0002291  38.7552 295.7156 15.08818203  1307","TLE_LINE1":"1 50838U 22001AM  22134.91667824  .00042424  00000-0  26692-2 0  9997","REF_FRAME":"TEME","EPHEMERIS_TYPE":"0","NORAD_CAT_ID":"50838","MEAN_MOTION_DOT":"0.00042424","OBJECT_TYPE":"PAYLOAD","PERIOD":"95.439","DECAY_DATE":null,"INCLINATION":"53.2169","FILE":"3445938","RA_OF_ASC_NODE":"320.4980","OBJECT_NAME":"STARLINK-3322","SEMIMAJOR_AXIS":"6917.947","ECCENTRICITY":"0.00022910","GP_ID":"203564709","MEAN_ANOMALY":"295.7156","OBJECT_ID":"2022-001AM","COUNTRY_CODE":"US","MEAN_MOTION_DDOT":"0.0000000000000","ELEMENT_SET_NO":"999","APOAPSIS":"541.397","CENTER_NAME":"EARTH","BSTAR":"0.00266920000000","SITE":"AFETR","CLASSIFICATION_TYPE":"U","ARG_OF_PERICENTER":"38.7552","RCS_SIZE":"LARGE","PERIAPSIS":"538.227"},{"APOAPSIS":"541.363","CENTER_NAME":"EARTH","COUNTRY_CODE":"US","MEAN_MOTION_DDOT":"0.0000000000000","ELEMENT_SET_NO":"999","SITE":"AFETR","CLASSIFICATION_TYPE":"U","BSTAR":"0.00321960000000","ARG_OF_PERICENTER":"32.6866","RCS_SIZE":"LARGE","PERIAPSIS":"538.255","RA_OF_ASC_NODE":"320.4951","SEMIMAJOR_AXIS":"6917.944","ECCENTRICITY":"0.00022460","OBJECT_NAME":"STARLINK-3320","MEAN_ANOMALY":"241.7630","GP_ID":"203564955","OBJECT_ID":"2022-001AN","REF_FRAME":"TEME","NORAD_CAT_ID":"50839","EPHEMERIS_TYPE":"0","DECAY_DATE":null,"MEAN_MOTION_DOT":"0.00051297","OBJECT_TYPE":"PAYLOAD","PERIOD":"95.439","FILE":"3445938","INCLINATION":"53.2153","EPOCH":"2022-05-14T22:00:00.999936","MEAN_MOTION":"15.08819166","REV_AT_EPOCH":"130","LAUNCH_DATE":"2022-01-06","TLE_LINE2":"2 50839  53.2153 320.4951 0002246  32.6866 241.7630 15.08819166  1307","MEAN_ELEMENT_THEORY":"SGP4","TIME_SYSTEM":"UTC","TLE_LINE1":"1 50839U 22001AN  22134.91667824  .00051297  00000-0  32196-2 0  9992"},{"OBJECT_NAME":"STARLINK-3295","SEMIMAJOR_AXIS":"6917.901","ECCENTRICITY":"0.00020300","RA_OF_ASC_NODE":"320.4926","OBJECT_ID":"2022-001AP","GP_ID":"203565712","MEAN_ANOMALY":"257.3220","BSTAR":"0.00234970000000","SITE":"AFETR","CLASSIFICATION_TYPE":"U","COUNTRY_CODE":"US","MEAN_MOTION_DDOT":"0.0000000000000","ELEMENT_SET_NO":"999","APOAPSIS":"541.170","CENTER_NAME":"EARTH","RCS_SIZE":"LARGE","PERIAPSIS":"538.361","ARG_OF_PERICENTER":"37.1309","REV_AT_EPOCH":"130","LAUNCH_DATE":"2022-01-06","MEAN_MOTION":"15.08833352","EPOCH":"2022-05-14T22:00:00.999936","TLE_LINE1":"1 50840U 22001AP  22134.91667824  .00037299  00000-0  23497-2 0  9994","TIME_SYSTEM":"UTC","MEAN_ELEMENT_THEORY":"SGP4","TLE_LINE2":"2 50840  53.2149 320.4926 0002030  37.1309 257.3220 15.08833352  1300","EPHEMERIS_TYPE":"0","NORAD_CAT_ID":"50840","REF_FRAME":"TEME","FILE":"3445938","INCLINATION":"53.2149","OBJECT_TYPE":"PAYLOAD","PERIOD":"95.438","MEAN_MOTION_DOT":"0.00037299","DECAY_DATE":null},{"COUNTRY_CODE":"US","MEAN_MOTION_DDOT":"0.0000000000000","ELEMENT_SET_NO":"999","APOAPSIS":"541.273","CENTER_NAME":"EARTH","BSTAR":"0.00236420000000","SITE":"AFETR","CLASSIFICATION_TYPE":"U","ARG_OF_PERICENTER":"36.4300","RCS_SIZE":"LARGE","PERIAPSIS":"538.335","RA_OF_ASC_NODE":"320.4960","OBJECT_NAME":"STARLINK-3300","SEMIMAJOR_AXIS":"6917.939","ECCENTRICITY":"0.00021240","GP_ID":"203565432","MEAN_ANOMALY":"198.0592","OBJECT_ID":"2022-001AQ","REF_FRAME":"TEME","EPHEMERIS_TYPE":"0","NORAD_CAT_ID":"50841","OBJECT_TYPE":"PAYLOAD","PERIOD":"95.439","MEAN_MOTION_DOT":"0.00037520","DECAY_DATE":null,"INCLINATION":"53.2156","FILE":"3445938","MEAN_MOTION":"15.08820821","EPOCH":"2022-05-14T22:00:00.999936","REV_AT_EPOCH":"130","LAUNCH_DATE":"2022-01-06","TIME_SYSTEM":"UTC","TLE_LINE2":"2 50841  53.2156 320.4960 0002124  36.4300 198.0592 15.08820821  1304","MEAN_ELEMENT_THEORY":"SGP4","TLE_LINE1":"1 50841U 22001AQ  22134.91667824  .00037520  00000-0  23642-2 0  9994"},{"RA_OF_ASC_NODE":"320.5014","ECCENTRICITY":"0.00023420","SEMIMAJOR_AXIS":"6917.911","OBJECT_NAME":"STARLINK-3302","MEAN_ANOMALY":"275.1492","GP_ID":"203564210","OBJECT_ID":"2022-001AR","CENTER_NAME":"EARTH","APOAPSIS":"541.396","ELEMENT_SET_NO":"999","COUNTRY_CODE":"US","MEAN_MOTION_DDOT":"0.0000000000000","CLASSIFICATION_TYPE":"U","SITE":"AFETR","BSTAR":"0.00280690000000","ARG_OF_PERICENTER":"39.2935","PERIAPSIS":"538.156","RCS_SIZE":"LARGE","EPOCH":"2022-05-14T22:00:00.999936","MEAN_MOTION":"15.08830053","LAUNCH_DATE":"2022-01-06","REV_AT_EPOCH":"130","TLE_LINE2":"2 50842  53.2168 320.5014 0002342  39.2935 275.1492 15.08830053  1300","MEAN_ELEMENT_THEORY":"SGP4","TIME_SYSTEM":"UTC","TLE_LINE1":"1 50842U 22001AR  22134.91667824  .00044656  00000-0  28069-2 0  9991","REF_FRAME":"TEME","NORAD_CAT_ID":"50842","EPHEMERIS_TYPE":"0","DECAY_DATE":null,"OBJECT_TYPE":"PAYLOAD","PERIOD":"95.438","MEAN_MOTION_DOT":"0.00044656","FILE":"3445938","INCLINATION":"53.2168"}];
